[{"OBJECT_NAME":"IRIDIUM 179","OBJECT_ID":"2023-068W","EPOCH":"2026-03-09T22:21:59.547744","MEAN_MOTION":14.80238607,"ECCENTRICITY":0.00023232,"INCLINATION":86.672,"RA_OF_ASC_NODE":75.5287,"ARG_OF_PERICENTER":95.2951,"MEAN_ANOMALY":264.8536,"EPHEMERIS_TYPE":0,"CLASSIFICATION_TYPE":"U","NORAD_CAT_ID":56730,"ELEMENT_SET_NO":999,"REV_AT_EPOCH":15168,"BSTAR":8.1626328e-5,"MEAN_MOTION_DOT":6.46e-6,"MEAN_MOTION_DDOT":0},{"OBJECT_NAME":"KUIPER-00154","OBJECT_ID":"2025-228Y","EPOCH":"2026-03-09T23:48:54.256032","MEAN_MOTION":14.79970678,"ECCENTRICITY":6.956e-5,"INCLINATION":51.9025,"RA_OF_ASC_NODE":334.2705,"ARG_OF_PERICENTER":101.8892,"MEAN_ANOMALY":258.2149,"EPHEMERIS_TYPE":0,"CLASSIFICATION_TYPE":"U","NORAD_CAT_ID":65969,"ELEMENT_SET_NO":999,"REV_AT_EPOCH":2362,"BSTAR":0.00067417698,"MEAN_MOTION_DOT":4.927e-5,"MEAN_MOTION_DDOT":0}]
